ONEWEB-0671             
1 55830U 23029AL  26204.53138057  .00000091  00000+0  19424-3 0  9995
2 55830  87.9181 297.7391 0002040 104.7766 255.3593 13.19724965163696
ONEWEB-0672             
1 55831U 23029AM  26204.22928558 -.00000036  00000+0 -12092-3 0  9990
2 55831  87.9174 267.2524 0001980  90.6628 269.4733 13.20770918165900
ONEWEB-0673             
1 55832U 23029AN  26204.66010977 -.00000011  00000+0 -60509-4 0  9996
2 55832  87.9190 297.7074 0002012 103.8206 256.3151 13.19725333163718
ONEWEB-0674             
1 55833U 23029AP  26204.48876220 -.00000105  00000+0 -31819-3 0  9993
2 55833  87.8954 282.4818 0001734 108.0409 252.0910 13.14502301164186
ONEWEB-0675             
1 55834U 23029AQ  26204.82675808  .00000070  00000+0  14175-3 0  9996
2 55834  87.9184 297.6820 0002192  94.3985 265.7398 13.19725898163755
ONEWEB-0720             
1 55835U 23029AR  26204.66721542  .00000022  00000+0  21785-4 0  9999
2 55835  87.9183 297.7135 0002277 105.6134 254.5250 13.19726927163657
ONEWEB-0537             
1 56046U 23043A   26204.52115133  .00000030  00000+0  45703-4 0  9993
2 56046  87.9077 221.5536 0002075  86.4342 273.7026 13.16594575163740
ONEWEB-0538             
1 56047U 23043B   26204.28682456 -.00000009  00000+0 -58329-4 0  9990
2 56047  87.9082 221.6032 0002307  91.0058 269.1337 13.16594104163723
ONEWEB-0546             
1 56048U 23043C   26204.50214986  .00000179  00000+0  43480-3 0  9992
2 56048  87.9072 221.5605 0002005  71.7013 288.4336 13.16594048163741
ONEWEB-0547             
1 56049U 23043D   26204.12821809  .00000113  00000+0  24274-3 0  9997
2 56049  87.9228 236.8212 0002240  96.5731 263.5658 13.21824237162978
ONEWEB-0548             
1 56050U 23043E   26204.45067678  .00000038  00000+0  65718-4 0  9996
2 56050  87.9078 221.5658 0001603  97.2827 262.8486 13.16595575163734
ONEWEB-0549             
1 56051U 23043F   26204.50081578  .00000065  00000+0  12677-3 0  9993
2 56051  87.9227 236.7519 0002459  92.7571 267.3844 13.21823901163024
ONEWEB-0550             
1 56052U 23043G   26204.48735852  .00000043  00000+0  71614-4 0  9995
2 56052  87.9231 236.7533 0001911  99.4751 260.6599 13.21827290163020
ONEWEB-0551             
1 56053U 23043H   26204.43459161  .00000089  00000+0  20173-3 0  9990
2 56053  87.8980 252.0039 0002478 100.1582 259.9828 13.15547685161163
ONEWEB-0552             
1 56054U 23043J   26204.55800168 -.00000061  00000+0 -17957-3 0  9999
2 56054  87.9230 236.7440 0002372 105.5309 254.6086 13.21825495163038
ONEWEB-0553             
1 56055U 23043K   26204.28049178  .00000052  00000+0  10302-3 0  9991
2 56055  87.9085 221.6044 0001877  82.6956 277.4388 13.16593679163726
ONEWEB-0554             
1 56056U 23043L   26204.49581731  .00000100  00000+0  22920-3 0  9994
2 56056  87.9072 221.5700 0001545  98.6408 261.4898 13.16594612163730
ONEWEB-0555             
1 56057U 23043M   26204.07782786 -.00000045  00000+0 -15032-3 0  9998
2 56057  87.9076 221.6419 0001969  75.7885 284.3465 13.16594342163686
ONEWEB-0557             
1 56058U 23043N   26204.09207784 -.00000026  00000+0 -10130-3 0  9994
2 56058  87.9076 221.6491 0000915  68.2640 291.8588 13.16594189163681
ONEWEB-0558             
1 56059U 23043P   26204.32419227  .00000048  00000+0  84418-4 0  9991
2 56059  87.9230 236.7860 0002349  91.5534 268.5869 13.21825831163012
ONEWEB-0559             
1 56060U 23043Q   26204.53951696  .00000007  00000+0 -14812-4 0  9994
2 56060  87.9228 236.7389 0002264  98.0890 262.0501 13.21824472163056
ONEWEB-0566             
1 56061U 23043R   26204.07861077  .00000022  00000+0  20634-4 0  9992
2 56061  87.9229 236.8284 0002348  98.7961 261.3439 13.21823790162976
ONEWEB-0568             
1 56062U 23043S   26204.10948303  .00000096  00000+0  21878-3 0  9996
2 56062  87.9073 221.6349 0001994  84.9381 275.1978 13.16596011163707
ONEWEB-0574             
1 56063U 23043T   26204.52606272  .00000107  00000+0  22813-3 0  9992
2 56063  87.9230 236.7445 0001850  95.3956 264.7389 13.21826145163072
ONEWEB-0575             
1 56064U 23043U   26204.48313130  .00000091  00000+0  20407-3 0  9995
2 56064  87.9074 221.5571 0001643  87.2097 272.9221 13.16595852163749
ONEWEB-0576             
1 56065U 23043V   26204.46412942 -.00000267  00000+0 -73308-3 0  9990
2 56065  87.9085 221.5705 0001860  90.4946 269.6398 13.16593512163739
ONEWEB-0577             
1 56066U 23043W   26204.47046688 -.00000004  00000+0 -44522-4 0  9998
2 56066  87.9079 221.5659 0001269  93.7858 266.3418 13.16595904163769
ONEWEB-0578             
1 56067U 23043X   26204.51260244  .00000083  00000+0  16936-3 0  9992
2 56067  87.9230 236.7433 0001964  85.5104 274.6255 13.21826705163035
ONEWEB-0579             
1 56068U 23043Y   26204.35278704  .00000018  00000+0  12845-4 0  9999
2 56068  87.9237 236.7738 0002159 102.1384 257.9991 13.21823350163027
ONEWEB-0581             
1 56069U 23043Z   26204.47679981  .00000009  00000+0 -11068-4 0  9992
2 56069  87.9068 221.5745 0001492  96.9024 263.2277 13.16595611163735
