OBJECT_NAME,OBJECT_ID,EPOCH,MEAN_MOTION,ECCENTRICITY,INCLINATION,RA_OF_ASC_NODE,ARG_OF_PERICENTER,MEAN_ANOMALY,EPHEMERIS_TYPE,CLASSIFICATION_TYPE,NORAD_CAT_ID,ELEMENT_SET_NO,REV_AT_EPOCH,BSTAR,MEAN_MOTION_DOT,MEAN_MOTION_DDOT
ONEWEB-0671,2023-029AL,2026-07-23T12:45:11.281248,13.19724965,.000204,87.9181,297.7391,104.7766,255.3593,0,U,55830,999,16369,.19424E-3,.91E-6,0
ONEWEB-0672,2023-029AM,2026-07-23T05:30:10.274112,13.20770918,.000198,87.9174,267.2524,90.6628,269.4733,0,U,55831,999,16590,-.12092E-3,-.36E-6,0
ONEWEB-0673,2023-029AN,2026-07-23T15:50:33.484128,13.19725333,.0002012,87.9190,297.7074,103.8206,256.3151,0,U,55832,999,16371,-.60509E-4,-.11E-6,0
ONEWEB-0674,2023-029AP,2026-07-23T11:43:49.054080,13.14502301,.0001734,87.8954,282.4818,108.0409,252.0910,0,U,55833,999,16418,-.31819E-3,-.105E-5,0
ONEWEB-0675,2023-029AQ,2026-07-23T19:50:31.898112,13.19725898,.0002192,87.9184,297.6820,94.3985,265.7398,0,U,55834,999,16375,.14175E-3,.7E-6,0
ONEWEB-0720,2023-029AR,2026-07-23T16:00:47.412288,13.19726927,.0002277,87.9183,297.7135,105.6134,254.5250,0,U,55835,999,16365,.21785E-4,.22E-6,0
ONEWEB-0537,2023-043A,2026-07-23T12:30:27.474912,13.16594575,.0002075,87.9077,221.5536,86.4342,273.7026,0,U,56046,999,16374,.45703E-4,.3E-6,0
ONEWEB-0538,2023-043B,2026-07-23T06:53:01.641984,13.16594104,.0002307,87.9082,221.6032,91.0058,269.1337,0,U,56047,999,16372,-.58329E-4,-.9E-7,0
ONEWEB-0546,2023-043C,2026-07-23T12:03:05.747904,13.16594048,.0002005,87.9072,221.5605,71.7013,288.4336,0,U,56048,999,16374,.4348E-3,.179E-5,0
ONEWEB-0547,2023-043D,2026-07-23T03:04:38.042976,13.21824237,.00022403,87.9228,236.8212,96.5731,263.5658,0,U,56049,999,16297,.24273538E-3,.113E-5,0
ONEWEB-0548,2023-043E,2026-07-23T10:48:58.473792,13.16595575,.0001603,87.9078,221.5658,97.2827,262.8486,0,U,56050,999,16373,.65718E-4,.38E-6,0
ONEWEB-0549,2023-043F,2026-07-23T12:01:10.483392,13.21823901,.0002459,87.9227,236.7519,92.7571,267.3844,0,U,56051,999,16302,.12677E-3,.65E-6,0
ONEWEB-0550,2023-043G,2026-07-23T11:41:47.776128,13.21827290,.0001911,87.9231,236.7533,99.4751,260.6599,0,U,56052,999,16302,.71614E-4,.43E-6,0
ONEWEB-0551,2023-043H,2026-07-23T10:25:48.715104,13.15547685,.0002478,87.8980,252.0039,100.1582,259.9828,0,U,56053,999,16116,.20173E-3,.89E-6,0
ONEWEB-0552,2023-043J,2026-07-23T13:23:31.345152,13.21825495,.0002372,87.9230,236.7440,105.5309,254.6086,0,U,56054,999,16303,-.17957E-3,-.61E-6,0
ONEWEB-0553,2023-043K,2026-07-23T06:43:54.489792,13.16593679,.0001877,87.9085,221.6044,82.6956,277.4388,0,U,56055,999,16372,.10302E-3,.52E-6,0
ONEWEB-0554,2023-043L,2026-07-23T11:53:58.615584,13.16594612,.0001545,87.9072,221.5700,98.6408,261.4898,0,U,56056,999,16373,.2292E-3,.1E-5,0
ONEWEB-0555,2023-043M,2026-07-23T01:52:04.327104,13.16594342,.00019698,87.9076,221.6419,75.7885,284.3465,0,U,56057,999,16368,-.15032444E-3,-.45E-6,0
ONEWEB-0557,2023-043N,2026-07-23T02:12:35.525376,13.16594189,.00009152,87.9076,221.6491,68.2640,291.8588,0,U,56058,999,16368,-.10130138E-3,-.26E-6,0
ONEWEB-0558,2023-043P,2026-07-23T07:46:50.212128,13.21825831,.0002349,87.9230,236.7860,91.5534,268.5869,0,U,56059,999,16301,.84418E-4,.48E-6,0
ONEWEB-0559,2023-043Q,2026-07-23T12:56:54.265344,13.21824472,.0002264,87.9228,236.7389,98.0890,262.0501,0,U,56060,999,16305,-.14812E-4,.7E-7,0
ONEWEB-0566,2023-043R,2026-07-23T01:53:11.970528,13.21823790,.00023484,87.9229,236.8284,98.7961,261.3439,0,U,56061,999,16297,.20633894E-4,.22E-6,0
ONEWEB-0568,2023-043S,2026-07-23T02:37:39.333792,13.16596011,.00019943,87.9073,221.6349,84.9381,275.1978,0,U,56062,999,16370,.21877549E-3,.96E-6,0
ONEWEB-0574,2023-043T,2026-07-23T12:37:31.819008,13.21826145,.000185,87.9230,236.7445,95.3956,264.7389,0,U,56063,999,16307,.22813E-3,.107E-5,0
ONEWEB-0575,2023-043U,2026-07-23T11:35:42.544320,13.16595852,.0001643,87.9074,221.5571,87.2097,272.9221,0,U,56064,999,16374,.20407E-3,.91E-6,0
ONEWEB-0576,2023-043V,2026-07-23T11:08:20.781888,13.16593512,.000186,87.9085,221.5705,90.4946,269.6398,0,U,56065,999,16373,-.73308E-3,-.267E-5,0
ONEWEB-0577,2023-043W,2026-07-23T11:17:28.338432,13.16595904,.0001269,87.9079,221.5659,93.7858,266.3418,0,U,56066,999,16376,-.44522E-4,-.4E-7,0
ONEWEB-0578,2023-043X,2026-07-23T12:18:08.850816,13.21826705,.0001964,87.9230,236.7433,85.5104,274.6255,0,U,56067,999,16303,.16936E-3,.83E-6,0
ONEWEB-0579,2023-043Y,2026-07-23T08:28:00.800256,13.21823350,.0002159,87.9237,236.7738,102.1384,257.9991,0,U,56068,999,16302,.12845E-4,.18E-6,0
ONEWEB-0581,2023-043Z,2026-07-23T11:26:35.503584,13.16595611,.0001492,87.9068,221.5745,96.9024,263.2277,0,U,56069,999,16373,-.11068E-4,.9E-7,0
